FENGYUN 1C DEB          
1 30558U 99025AKY 17345.96319484  .00000833  00000-0  12797-2 0  9992
2 30558  99.4488 349.9210 0448421  67.2605 355.7306 13.19927242521245
